ORBCOMM FM115           
1 41186U 15081H   24273.81683399  .00003139  00000+0  66396-3 0  9998
2 41186  46.9977 196.9316 0001021 293.4236  66.6543 14.61305378469672
ORBCOMM FM108           
1 41187U 15081J   24273.65228792  .00002635  00000+0  61627-3 0  9995
2 41187  47.0032 256.5508 0001890 204.9968 155.0826 14.57075457468781
ORBCOMM FM116           
1 41189U 15081L   24273.88260888  .00003919  00000+0  89768-3 0  9996
2 41189  47.0023 344.1516 0003201 283.9818  76.0711 14.57111209467741
